0 IUS R/B(2)
1 23615U 95035D   13279.60296096 -.00000100  00000-0  10000-3 0  5216
2 23615 015.7979 030.6283 0012785 049.1036 311.0090 01.00478587 66933
0 IUS R/B(2)
1 23615U 95035D   13282.58853684 -.00000087  00000-0  10000-3 0  5224
2 23615 015.8019 030.5908 0012790 049.1469 310.9646 01.00478439 66962
0 IUS R/B(2)
1 23615U 95035D   13285.57411659 -.00000074  00000-0  10000-3 0  5235
2 23615 015.8058 030.5533 0012729 049.3181 310.7902 01.00478387 66992
0 IUS R/B(2)
1 23615U 95035D   13288.55967070 -.00000059  00000-0  10000-3 0  5243
2 23615 015.8097 030.5157 0012661 049.4720 310.6226 01.00478442 67027
0 IUS R/B(2)
1 23615U 95035D   13292.54040851 -.00000034  00000-0  10000-3 0  5250
2 23615 015.8151 030.4658 0012563 049.4804 310.5999 01.00478713 67068
